[{"OBJECT_NAME":"STARLINK-2741","OBJECT_ID":"2021-044AY","EPOCH":"2025-09-24T07:14:03.227136","MEAN_MOTION":15.06395784,"ECCENTRICITY":0.00014772,"INCLINATION":53.0523,"RA_OF_ASC_NODE":113.9204,"ARG_OF_PERICENTER":87.5895,"MEAN_ANOMALY":272.5263,"EPHEMERIS_TYPE":0,"CLASSIFICATION_TYPE":"U","NORAD_CAT_ID":48684,"ELEMENT_SET_NO":999,"REV_AT_EPOCH":23911,"BSTAR":0.00025426673,"MEAN_MOTION_DOT":3.507e-5,"MEAN_MOTION_DDOT":0},{"OBJECT_NAME":"STARLINK-2751","OBJECT_ID":"2021-044AZ","EPOCH":"2025-09-23T23:36:50.802912","MEAN_MOTION":15.06409477,"ECCENTRICITY":0.00013203,"INCLINATION":53.0548,"RA_OF_ASC_NODE":100.0374,"ARG_OF_PERICENTER":106.0544,"MEAN_ANOMALY":254.059,"EPHEMERIS_TYPE":0,"CLASSIFICATION_TYPE":"U","NORAD_CAT_ID":48685,"ELEMENT_SET_NO":999,"REV_AT_EPOCH":23928,"BSTAR":2.9821112e-5,"MEAN_MOTION_DOT":1.63e-6,"MEAN_MOTION_DDOT":0},{"OBJECT_NAME":"STARLINK-2629","OBJECT_ID":"2021-044BA","EPOCH":"2025-09-23T23:28:17.964480","MEAN_MOTION":15.06408388,"ECCENTRICITY":0.00014277,"INCLINATION":53.054,"RA_OF_ASC_NODE":105.2973,"ARG_OF_PERICENTER":93.1141,"MEAN_ANOMALY":267.0012,"EPHEMERIS_TYPE":0,"CLASSIFICATION_TYPE":"U","NORAD_CAT_ID":48686,"ELEMENT_SET_NO":999,"REV_AT_EPOCH":23920,"BSTAR":0.00049834453,"MEAN_MOTION_DOT":7.151e-5,"MEAN_MOTION_DDOT":0},{"OBJECT_NAME":"STARLINK-2627","OBJECT_ID":"2021-044BB","EPOCH":"2025-09-23T22:52:23.342880","MEAN_MOTION":15.06415932,"ECCENTRICITY":0.00012801,"INCLINATION":53.0528,"RA_OF_ASC_NODE":95.1301,"ARG_OF_PERICENTER":92.6738,"MEAN_ANOMALY":267.4397,"EPHEMERIS_TYPE":0,"CLASSIFICATION_TYPE":"U","NORAD_CAT_ID":48687,"ELEMENT_SET_NO":999,"REV_AT_EPOCH":23934,"BSTAR":0.00022162885,"MEAN_MOTION_DOT":3.023e-5,"MEAN_MOTION_DDOT":0},{"OBJECT_NAME":"STARLINK-2742","OBJECT_ID":"2021-044BC","EPOCH":"2025-09-23T19:46:37.818912","MEAN_MOTION":15.06389318,"ECCENTRICITY":0.00013703,"INCLINATION":53.0529,"RA_OF_ASC_NODE":95.7065,"ARG_OF_PERICENTER":90.4995,"MEAN_ANOMALY":269.6151,"EPHEMERIS_TYPE":0,"CLASSIFICATION_TYPE":"U","NORAD_CAT_ID":48688,"ELEMENT_SET_NO":999,"REV_AT_EPOCH":23932,"BSTAR":0.00037581966,"MEAN_MOTION_DOT":5.319e-5,"MEAN_MOTION_DDOT":0},{"OBJECT_NAME":"STARLINK-2740","OBJECT_ID":"2021-044BE","EPOCH":"2025-09-24T07:11:59.818560","MEAN_MOTION":15.06398333,"ECCENTRICITY":0.00013154,"INCLINATION":53.0544,"RA_OF_ASC_NODE":108.5704,"ARG_OF_PERICENTER":94.2196,"MEAN_ANOMALY":265.8944,"EPHEMERIS_TYPE":0,"CLASSIFICATION_TYPE":"U","NORAD_CAT_ID":48690,"ELEMENT_SET_NO":999,"REV_AT_EPOCH":23918,"BSTAR":9.5065443e-5,"MEAN_MOTION_DOT":1.135e-5,"MEAN_MOTION_DDOT":0},{"OBJECT_NAME":"STARLINK-2750","OBJECT_ID":"2021-044BF","EPOCH":"2025-09-24T06:32:51.061344","MEAN_MOTION":15.06399254,"ECCENTRICITY":0.00014399,"INCLINATION":53.0529,"RA_OF_ASC_NODE":103.6898,"ARG_OF_PERICENTER":89.1733,"MEAN_ANOMALY":270.9421,"EPHEMERIS_TYPE":0,"CLASSIFICATION_TYPE":"U","NORAD_CAT_ID":48691,"ELEMENT_SET_NO":999,"REV_AT_EPOCH":23925,"BSTAR":0.00012000034,"MEAN_MOTION_DOT":1.506e-5,"MEAN_MOTION_DDOT":0},{"OBJECT_NAME":"STARLINK-2752","OBJECT_ID":"2021-044BG","EPOCH":"2025-09-24T06:11:37.818240","MEAN_MOTION":15.06413256,"ECCENTRICITY":0.00018383,"INCLINATION":53.0528,"RA_OF_ASC_NODE":103.8834,"ARG_OF_PERICENTER":92.908,"MEAN_ANOMALY":267.2119,"EPHEMERIS_TYPE":0,"CLASSIFICATION_TYPE":"U","NORAD_CAT_ID":48692,"ELEMENT_SET_NO":999,"REV_AT_EPOCH":23925,"BSTAR":-0.00018074418,"MEAN_MOTION_DOT":-2.974e-5,"MEAN_MOTION_DDOT":0},{"OBJECT_NAME":"STARLINK-2618","OBJECT_ID":"2021-044BH","EPOCH":"2025-09-23T20:49:36.684480","MEAN_MOTION":15.06415758,"ECCENTRICITY":0.00011639,"INCLINATION":53.0512,"RA_OF_ASC_NODE":110.5087,"ARG_OF_PERICENTER":86.5221,"MEAN_ANOMALY":273.5901,"EPHEMERIS_TYPE":0,"CLASSIFICATION_TYPE":"U","NORAD_CAT_ID":48693,"ELEMENT_SET_NO":999,"REV_AT_EPOCH":23912,"BSTAR":0.00033719358,"MEAN_MOTION_DOT":4.747e-5,"MEAN_MOTION_DDOT":0},{"OBJECT_NAME":"STARLINK-2748","OBJECT_ID":"2021-044BJ","EPOCH":"2025-09-24T07:12:37.049184","MEAN_MOTION":15.06401973,"ECCENTRICITY":0.00013862,"INCLINATION":53.0532,"RA_OF_ASC_NODE":113.5546,"ARG_OF_PERICENTER":82.508,"MEAN_ANOMALY":277.6066,"EPHEMERIS_TYPE":0,"CLASSIFICATION_TYPE":"U","NORAD_CAT_ID":48694,"ELEMENT_SET_NO":999,"REV_AT_EPOCH":23911,"BSTAR":6.0930244e-5,"MEAN_MOTION_DOT":6.26e-6,"MEAN_MOTION_DDOT":0},{"OBJECT_NAME":"STARLINK-2616","OBJECT_ID":"2021-044BK","EPOCH":"2025-09-23T20:37:03.728352","MEAN_MOTION":15.06389305,"ECCENTRICITY":0.00016798,"INCLINATION":53.0546,"RA_OF_ASC_NODE":115.5992,"ARG_OF_PERICENTER":87.1678,"MEAN_ANOMALY":272.9503,"EPHEMERIS_TYPE":0,"CLASSIFICATION_TYPE":"U","NORAD_CAT_ID":48695,"ELEMENT_SET_NO":999,"REV_AT_EPOCH":23905,"BSTAR":-0.00013353764,"MEAN_MOTION_DOT":-2.269e-5,"MEAN_MOTION_DDOT":0},{"OBJECT_NAME":"STARLINK-2753","OBJECT_ID":"2021-044BL","EPOCH":"2025-09-23T23:34:13.384704","MEAN_MOTION":15.06399621,"ECCENTRICITY":0.00013693,"INCLINATION":53.0525,"RA_OF_ASC_NODE":120.0461,"ARG_OF_PERICENTER":96.0627,"MEAN_ANOMALY":264.0518,"EPHEMERIS_TYPE":0,"CLASSIFICATION_TYPE":"U","NORAD_CAT_ID":48696,"ELEMENT_SET_NO":999,"REV_AT_EPOCH":23900,"BSTAR":0.00030145831,"MEAN_MOTION_DOT":4.212e-5,"MEAN_MOTION_DDOT":0},{"OBJECT_NAME":"STARLINK-3004","OBJECT_ID":"2021-059B","EPOCH":"2025-09-24T07:47:22.807392","MEAN_MOTION":15.01279741,"ECCENTRICITY":0.00012501,"INCLINATION":97.6598,"RA_OF_ASC_NODE":31.2,"ARG_OF_PERICENTER":207.8414,"MEAN_ANOMALY":152.2743,"EPHEMERIS_TYPE":0,"CLASSIFICATION_TYPE":"U","NORAD_CAT_ID":48880,"ELEMENT_SET_NO":999,"REV_AT_EPOCH":23384,"BSTAR":0.00031832243,"MEAN_MOTION_DOT":4.034e-5,"MEAN_MOTION_DDOT":0},{"OBJECT_NAME":"STARLINK-3005","OBJECT_ID":"2021-059C","EPOCH":"2025-09-24T06:01:48.489888","MEAN_MOTION":15.0125592,"ECCENTRICITY":0.00013041,"INCLINATION":97.6602,"RA_OF_ASC_NODE":31.0745,"ARG_OF_PERICENTER":199.9528,"MEAN_ANOMALY":160.1645,"EPHEMERIS_TYPE":0,"CLASSIFICATION_TYPE":"U","NORAD_CAT_ID":48881,"ELEMENT_SET_NO":999,"REV_AT_EPOCH":23383,"BSTAR":-2.9965827e-5,"MEAN_MOTION_DOT":-4.44e-6,"MEAN_MOTION_DDOT":0},{"OBJECT_NAME":"STARLINK-3096","OBJECT_ID":"2021-082B","EPOCH":"2025-09-24T04:38:18.502944","MEAN_MOTION":14.98325187,"ECCENTRICITY":0.00029645,"INCLINATION":69.9992,"RA_OF_ASC_NODE":314.244,"ARG_OF_PERICENTER":268.1989,"MEAN_ANOMALY":91.8831,"EPHEMERIS_TYPE":0,"CLASSIFICATION_TYPE":"U","NORAD_CAT_ID":49131,"ELEMENT_SET_NO":999,"REV_AT_EPOCH":22202,"BSTAR":5.1341e-6,"MEAN_MOTION_DOT":-3.2e-7,"MEAN_MOTION_DDOT":0},{"OBJECT_NAME":"STARLINK-3090","OBJECT_ID":"2021-082C","EPOCH":"2025-09-24T06:33:07.384896","MEAN_MOTION":14.98323951,"ECCENTRICITY":0.00030563,"INCLINATION":70.001,"RA_OF_ASC_NODE":353.9265,"ARG_OF_PERICENTER":270.7152,"MEAN_ANOMALY":89.3657,"EPHEMERIS_TYPE":0,"CLASSIFICATION_TYPE":"U","NORAD_CAT_ID":49132,"ELEMENT_SET_NO":999,"REV_AT_EPOCH":22105,"BSTAR":-2.4205281e-5,"MEAN_MOTION_DOT":-3.82e-6,"MEAN_MOTION_DDOT":0}]
