48684,STARLINK-2741,2021,95.59,260.0,+,53.05,Active,1,LEO,USA,USA,Commercial,Communications,Falcon,1 48684U 21044AY  25267.30142624  .00003507  00000+0  25427-3 0  9992,2 48684  53.0523 113.9204 0001477  87.5895 272.5263 15.06395784239112,15.06395784,0.0001477,LEO
48685,STARLINK-2751,2021,95.59,260.0,+,53.05,Active,1,LEO,USA,USA,Commercial,Communications,Falcon,1 48685U 21044AZ  25266.98392133  .00000163  00000+0  29821-4 0  9996,2 48685  53.0548 100.0374 0001320 106.0544 254.0590 15.06409477239281,15.06409477,0.000132,LEO
48686,STARLINK-2629,2021,95.59,260.0,+,53.05,Active,1,LEO,USA,USA,Commercial,Communications,Falcon,1 48686U 21044BA  25266.97798570  .00007151  00000+0  49834-3 0  9990,2 48686  53.0540 105.2973 0001427  93.1141 267.0012 15.06408388239208,15.06408388,0.0001427,LEO
48687,STARLINK-2627,2021,95.59,260.0,+,53.05,Active,1,LEO,USA,USA,Commercial,Communications,Falcon,1 48687U 21044BB  25266.95304795  .00003023  00000+0  22163-3 0  9991,2 48687  53.0528  95.1301 0001280  92.6738 267.4397 15.06415932239348,15.06415932,0.000128,LEO
48688,STARLINK-2742,2021,95.59,260.0,+,53.05,Active,1,LEO,USA,USA,Commercial,Communications,Falcon,1 48688U 21044BC  25266.82404883  .00005319  00000+0  37582-3 0  9998,2 48688  53.0529  95.7065 0001370  90.4995 269.6151 15.06389318239322,15.06389318,0.000137,LEO
48690,STARLINK-2740,2021,95.59,260.0,+,53.05,Active,1,LEO,USA,USA,Commercial,Communications,Falcon,1 48690U 21044BE  25267.29999790  .00001135  00000+0  95065-4 0  9992,2 48690  53.0544 108.5704 0001315  94.2196 265.8944 15.06398333239188,15.06398333,0.0001315,LEO
48691,STARLINK-2750,2021,95.59,260.0,+,53.05,Active,1,LEO,USA,USA,Commercial,Communications,Falcon,1 48691U 21044BF  25267.27281321  .00001506  00000+0  12000-3 0  9994,2 48691  53.0529 103.6898 0001439  89.1733 270.9421 15.06399254239257,15.06399254,0.0001439,LEO
48692,STARLINK-2752,2021,95.59,260.0,+,53.05,Active,1,LEO,USA,USA,Commercial,Communications,Falcon,1 48692U 21044BG  25267.25807660 -.00002974  00000+0 -18074-3 0  9992,2 48692  53.0528 103.8834 0001838  92.9080 267.2119 15.06413256239251,15.06413256,0.0001838,LEO
48693,STARLINK-2618,2021,95.59,260.0,+,53.05,Active,1,LEO,USA,USA,Commercial,Communications,Falcon,1 48693U 21044BH  25266.86778570  .00004747  00000+0  33719-3 0  9997,2 48693  53.0512 110.5087 0001163  86.5221 273.5901 15.06415758239121,15.06415758,0.0001163,LEO
48694,STARLINK-2748,2021,95.59,260.0,+,53.05,Active,1,LEO,USA,USA,Commercial,Communications,Falcon,1 48694U 21044BJ  25267.30042881  .00000626  00000+0  60930-4 0  9995,2 48694  53.0532 113.5546 0001386  82.5080 277.6066 15.06401973239113,15.06401973,0.0001386,LEO
48695,STARLINK-2616,2021,95.59,260.0,+,53.05,Active,1,LEO,USA,USA,Commercial,Communications,Falcon,1 48695U 21044BK  25266.85907093 -.00002269  00000+0 -13354-3 0  9994,2 48695  53.0546 115.5992 0001679  87.1678 272.9503 15.06389305239056,15.06389305,0.0001679,LEO
48696,STARLINK-2753,2021,95.59,260.0,+,53.05,Active,1,LEO,USA,USA,Commercial,Communications,Falcon,1 48696U 21044BL  25266.98209936  .00004212  00000+0  30146-3 0  9996,2 48696  53.0525 120.0461 0001369  96.0627 264.0518 15.06399621239000,15.06399621,0.0001369,LEO
48880,STARLINK-3004,2021,95.92,260.0,+,97.66,Active,1,LEO,USA,USA,Commercial,Communications,Falcon,1 48880U 21059B   25267.32456953  .00004034  00000+0  31832-3 0  9994,2 48880  97.6598  31.2000 0001250 207.8414 152.2743 15.01279741233845,15.01279741,0.000125,LEO
48881,STARLINK-3005,2021,95.92,260.0,+,97.66,Active,1,LEO,USA,USA,Commercial,Communications,Falcon,1 48881U 21059C   25267.25125567 -.00000444  00000+0 -29966-4 0  9990,2 48881  97.6602  31.0745 0001304 199.9528 160.1645 15.01255920233834,15.0125592,0.0001304,LEO
49131,STARLINK-3096,2021,96.11,260.0,+,70.0,Active,1,LEO,USA,USA,Commercial,Communications,Falcon,1 49131U 21082B   25267.19326971 -.00000032  00000+0  51341-5 0  9995,2 49131  69.9992 314.2440 0002964 268.1989  91.8831 14.98325187222022,14.98325187,0.0002964,LEO
49132,STARLINK-3090,2021,96.11,260.0,+,70.0,Active,1,LEO,USA,USA,Commercial,Communications,Falcon,1 49132U 21082C   25267.27300214 -.00000382  00000+0 -24205-4 0  9994,2 49132  70.0010 353.9265 0003056 270.7152  89.3657 14.98323951221053,14.98323951,0.0003056,LEO
